Nom,Lundi,Mardi,Mercredi,Jeudi,Vendredi,Samedi,Dimanche,Photo,Adresse,Latitude,Longitude,Id,Vérifié
Chez Jeannette,8:00-2:00,8:00-2:00,8:00-2:00,8:00-2:00,8:00-2:00,8:00-2:00,9:00-2:00,Chez-Jeannette32.jpg (https://dl.airtable.com/jcKHGWN0QSGfwQnij1sC_Chez-Jeannette32.jpg),"47, rue du Faubourg Saint-Denis, 75010 Paris",48.8716675,2.3513403,1,checked
Le Comptoir Général,18:00-2:00,18:00-2:00,18:00-2:00,18:00-2:00,16:00-2:00,14:00-2:00,14:00-2:00,Comptoir-général.jpg (https://dl.airtable.com/opRfVMaVRG2KVadaq2aY_Comptoir-g%C3%A9n%C3%A9ral.jpg),"80, quai de Jemmapes, 75010 Paris",48.8720829,2.3630873,2,checked
Bizz’Art,,,20:00-5:00,19:00-5:00,20:00-5:00,20:00-5:00,16:00-21:00,rideauxsalle-bizzart-photo-olivier-bangoura-web.jpeg (https://dl.airtable.com/J72PafCaThqwf8aXK4nD_rideauxsalle-bizzart-photo-olivier-bangoura-web.jpeg),"167, Quai de Valmy - Canal St Martin, 75010 Paris",48.8790816,2.3642437,3,checked
Au Dixième,8:00-2:00,8:00-2:00,8:00-2:00,8:00-2:00,8:00-2:00,8:00-2:00,8:00-2:00,au-dixieme.jpg (https://dl.airtable.com/5TIk7y38RIej2mlb97cq_au-dixieme.jpg),"22, Rue de Mazagran, 75010 Paris",48.8710917,2.3501729,4,checked
Au fût et à mesure,17:00-0:00,17:00-2:00,17:00-2:00,17:00-2:00,17:00-2:00,17:00-2:00,,aufutetamesure.jpg (https://dl.airtable.com/5klkaStgRGqW0W3ffa3Q_aufutetamesure.jpg),"2, rue d’Hauteville, 75010 Paris",48.8707143,2.3477146,5,checked
Le Cinquante,18:00-2:00,18:00-2:00,18:00-2:00,18:00-2:00,18:00-2:00,18:00-2:00,18:00-2:00,lecinquante.png (https://dl.airtable.com/fLMqjauDRmyqWJFE017W_lecinquante.png),"50, rue de Lancry, 75010 Paris",48.8719035,2.3604903,6,checked
UFO,18:00-2:00,18:00-2:00,18:00-2:00,18:00-2:00,18:00-2:00,18:00-2:00,18:00-2:00,UFO_comptoir.jpg (https://dl.airtable.com/Wh98yRtSCa0LlQV9GUMn_UFO_comptoir.jpg),"49 Rue Jean-Pierre Timbaud, 75011 Paris",48.8719208,2.3539242,7,checked
La MaiZon,,18:00-2:00,18:00-2:00,18:00-2:00,18:00-5:00,18:00-5:00,,lamaizon.png (https://dl.airtable.com/0nN7Cgn0QkKKk8zIHMeh_lamaizon.png),"123 Rue Oberkampf, 75011 Paris",48.8661295,2.3768913,8,checked
L'Escargot,,16:00-2:00,16:00-2:00,16:00-2:00,16:00-2:00,16:00-2:00,,lescargot.jpg (https://dl.airtable.com/9rnbRobqT9mMWLg7nieB_lescargot.jpg),"50 Rue de la Villette, 75019 Paris",48.8770137,2.3858283,9,checked
Aux Folies,7:00-2:00,7:00-2:00,7:00-2:00,7:00-2:00,7:00-2:00,7:00-2:00,7:00-2:00,auxfolies.jpg (https://dl.airtable.com/UCse9vkQLiETImOFwzlH_auxfolies.jpg),"8 Rue de Belleville, 75020 Paris",48.8722863,2.3758575,10,checked
Chez Pierrot,18:00-2:00,18:00-2:00,18:00-2:00,18:00-2:00,18:00-2:00,18:00-2:00,,Chez-Pierrot-2ok.jpg (https://dl.airtable.com/WX68rVgqTevAHiYTvznQ_Chez-Pierrot-2ok.jpg),"33 Rue de Lappe, 75011 Paris",48.8723167,2.3605366,11,checked
Le Zorba,5:00-2:00,5:00-2:00,5:00-2:00,5:00-2:00,5:00-2:00,7:00-2:00,7:00-2:00,Le-Zorba-paris.jpg (https://dl.airtable.com/tAIx6Z6WSnGQ8lv54utI_Le-Zorba-paris.jpg),"137 rue du Faubourg du Temple, 75010 Paris",48.871952,2.3742457,12,checked
Les Triplettes,8:00-2:00,8:00-2:00,8:00-2:00,8:00-2:00,8:00-2:00,8:00-2:00,8:00-2:00,triplettes.jpg (https://dl.airtable.com/6xv5MA1PQzS1AaPNf3FP_triplettes.jpg),"102 Boulevard de Belleville, 75020 Paris",48.8705828,2.3767883,13,checked
Le Mecano,9:00-2:00,9:00-2:00,9:00-2:00,9:00-2:00,9:00-5:00,9:00-5:00,10:00-2:00,le-mecano.jpg (https://dl.airtable.com/ywbHDavSLCqojRxZTjg5_le-mecano.jpg),"99 Rue Oberkampf, 75011 Paris",48.8656882,2.3741156,14,checked
L'autobus,9:00-2:00,9:00-2:00,9:00-2:00,9:00-2:00,9:00-2:00,9:00-2:00,,lautobus.png (https://dl.airtable.com/poh3puJRNa0USrWZ8gAG_lautobus.png),"1 Rue Oberkampf, 75011 Paris",48.86277,2.3652121,15,checked
Espit Chupitos,,,,21:00-2:00,20:00-2:00,20:00-2:00,,choupitos.jpg (https://dl.airtable.com/Yfc95ZVYQmuPIBbqaAaY_choupitos.jpg),"117 Rue Saint-Maur, 75011 Paris",48.8659083,2.376339,16,checked
Le Ciré Jaune,,18:00-2:00,18:00-2:00,18:00-2:00,18:00-2:00,18:00-2:00,,cir%c3%a9jaune.jpg (https://dl.airtable.com/XE561R6qTea63jPwTk8q_cir%25c3%25a9jaune.jpg),"112 Rue Saint-Maur, 75011 Paris",48.8669285,2.3741529,17,checked
Rosa Bonheur,,,12:00-0:00,12:00-0:00,12:00-0:00,10:00-0:00,10:00-0:00,rosabonheur.jpg (https://dl.airtable.com/BBHYvh2sQUSDnK3MpL67_rosabonheur.jpg),"Parc des Buttes Chaumont, 2 Avenue de la Cascade, 75019 Paris",48.8799395,2.3840523,18,checked
Le Café des Antiquaires,8:00-2:00,8:00-2:00,8:00-2:00,8:00-2:00,8:00-2:00,18:00-02:00,,Le-Cafe-des-Antiquaires.jpg (https://dl.airtable.com/2wJ8cxagQ2KeAoktB2jM_Le-Cafe-des-Antiquaires.jpg),"15 Rue de la Grange Batelière, 75009 Paris",48.8730513,2.3394161,19,checked
La Rotonde,10:00-2:00,10:00-2:00,10:00-2:00,10:00-2:00,10:00-6:00,10:00-6:00,12:00-22:00,la-rotonde.jpg (https://dl.airtable.com/a0Y2i1b5Q9SIx81s5v2c_la-rotonde.jpg),"6-8 Place de la Bataille de Stalingrad, 75019 Paris",48.8834168,2.3671543,20,checked
Le Dernier Bar avant la Fin du Monde,15:00-02:00,15:00-02:00,15:00-02:00,15:00-02:00,15:00-02:00,11:30-2:00,11:30-2:00,dernierbar.png (https://dl.airtable.com/U0GJDDfZTaKPn4ej0AdU_dernierbar.png),"19 Avenue Victoria, 75001 Paris",48.8579535,2.3441693,21,checked
Meltdown,18:00-1:00,18:00-1:00,18:00-1:00,18:00-1:00,18:00-2:00,18:00-2:00,15:00-21:00,destiny-meltdown-119.jpg (https://dl.airtable.com/ni4dRQtSCZz7VAlUWb0Q_destiny-meltdown-119.jpg),"6 Passage Thiéré, 75011 Paris",48.8535644,2.3725791,22,checked
N'Importe Quoi,18:00-4:00,18:00-4:00,18:00-4:00,18:00-5:00,18:00-5:00,18:00-5:00,,le-nimporte-quoi-paris-bar-original.jpg (https://dl.airtable.com/XIBzw1BFRpO3F5aDDrOi_le-nimporte-quoi-paris-bar-original.jpg),"16 Rue du Roule, 75001 Paris",48.8607797,2.3416736,23,checked
La Bellevilloise,,,19:00-1:00,19:00-1:00,19:00-6:00,11:00-6:00,11:30-16:00/19:00-1:00,bellevilloise.jpg (https://dl.airtable.com/Od8ppNu0ScahEZ37kA0P_bellevilloise.jpg),"19-21 Rue Boyer, 75020 Paris",48.8687272,2.3898563,24,checked
Black Dog,12:00-2:00,12:00-2:00,12:00-2:00,12:00-2:00,12:00-5:00,12:00-5:00,17:00-2:00,blackdog.jpg (https://dl.airtable.com/k7zuUHSPQo6ajHy6AeMm_blackdog.jpg),"26 Rue des Lombards, 75004 Paris",48.8594218,2.3469987,25,checked
La Maroquinerie,19:30-23:30,19:30-23:30,19:30-23:30,19:30-23:30,19:30-23:30,19:30-23:30,,maroquinerie.JPG (https://dl.airtable.com/0bw4YfjxSIiQlTGSxJrO_maroquinerie.JPG),"23 Rue Boyer, 75020 Paris",48.8685113,2.3898274,26,checked
La Maison Bistrot,10:00-2:00,10:00-2:00,10:00-2:00,10:00-2:00,10:00-2:00,10:00-2:00,,lamaison.jpg (https://dl.airtable.com/0e4qUcn6SN6iHL6mnhmE_lamaison.jpg),"65 Boulevard de la Villette, 75010 Paris",48.876253,2.3697092,27,checked
Café Oz - Denfert Rochereau,12:00-2:00,12:00-3:00,12:00-3:00,12:00-5:00,12:00-5:00,12:00-5:00,11:00-2:00,cafeozdenfert.png (https://dl.airtable.com/KOofqF5PRu2B4qZzpSgQ_cafeozdenfert.png),"3 Place Denfert-Rochereau, 75014 Paris",48.8333124,2.3316967,28,checked
Café Oz - Châtelet,17:00-2:00,17:00-3:00,17:00-4:00,17:00-5:00,17:00-5:00,12:00-5:00,12:00-2:00,cafeozchatelet.jpg (https://dl.airtable.com/zQuX2OMKQkesxCG8jlkC_cafeozchatelet.jpg),"18 Rue St Denis, 75001 Paris",48.8594041,2.3458014,29,checked
Café Oz - Grands Boulevards,16:00-3:00,16:00-4:00,16:00-4:00,16:00-4:00,16:00-5:00,12:00-5:00,14:00-3:00,cafeozgrandsboulevard.jpg (https://dl.airtable.com/pgMlgppT5imAbCwUiapA_cafeozgrandsboulevard.jpg),"8 Boulevard Montmartre, 75009 Paris",48.8718411,2.34007,30,checked
O'Sullivans - Grand Boulevard,12:00-4:30,12:00-4:30,12:00-4:30,12:00-5:30,12:00-5:30,14:00-4:30,14:00-4:30,osullivans-grandsboulevards.png (https://dl.airtable.com/kCcl51rqRvadBKVqKWpz_osullivans-grandsboulevards.png),"1 Boulevard Montmartre, 75002 Paris",48.8713695,2.3406033,31,checked
Corcoran's Irish Pub - Grands Boulevards,9:00-2:00,9:00-2:00,9:00-2:00,9:00-3:00,9:00-5:00,11:00-5:00,11:00-2:00,corcorans.jpg (https://dl.airtable.com/mJjwDdOfSHS4cCc3iDTE_corcorans.jpg),"23 Boulevard Poissonnière, 75009 Paris",48.8711471,2.3419551,32,checked
Buddha Bar,18:00-1:00,18:00-1:00,18:00-1:00,18:00-1:00,18:00-3:00,18:00-3:00,18:00-1:00,BBar_Paris.jpg (https://dl.airtable.com/QT5p0z2ERrynApnoMud5_BBar_Paris.jpg),"8-12 Rue Boissy d'Anglas, 75008 Paris",48.8679079,2.3191734,33,checked
Le Quartier Général,,17:00-5:00,17:00-5:00,17:00-5:00,17:00-5:00,17:00-5:00,,quartiergeneralcoub-950x380.jpg (https://dl.airtable.com/eeTLjNiyRoaj5ScRVmPh_quartiergeneralcoub-950x380.jpg),"103 Rue Oberkampf, 75011 Paris",48.8656867,2.374942,34,checked
Le 43,,17:00-22:00,17:00-22:00,17:00-22:00,,,,Up-the-roof.jpg (https://dl.airtable.com/CzB523FdTNaN2S2OmPYe_Up-the-roof.jpg),"4 Rue Danton, 75006 Paris",48.8528053,2.3417201,35,checked
Le 153,18:00-2:00,18:00-2:00,18:00-2:00,18:00-2:00,18:00-2:00,18:00-2:00,,153.jpg (https://dl.airtable.com/igKZYRTcTFKJO2d4wSzt_153.jpg),"153 Rue Saint-Martin, 75003 Paris",48.8619875,2.3495204,36,checked
Le 138,7:00-2:00,7:00-2:00,7:00-2:00,7:00-2:00,7:00-2:00,7:00-2:00,7:00-2:00,138.jpg (https://dl.airtable.com/uixsLfY6QwqznvgKWkKN_138.jpg),"138 Rue du Faubourg Saint-Antoine, 75012 Paris",48.8504325,2.3772433,37,checked
Les petites Gouttes,,11:00-2:00,11:00-2:00,11:00-2:00,11:00-2:00,11:00-2:00,11:00-19:00,carousel_petites-gouttes-aux.jpg (https://dl.airtable.com/AZIvYLkSBilouweb8Ufq_carousel_petites-gouttes-aux.jpg),"12 Espl. Nathalie Sarraute, 75018 Paris",48.8882807,2.3605043,38,checked
En vrac,10:00-0:00,10:00-0:00,10:00-0:00,10:00-0:00,10:00-0:00,10:00-0:00,10:00-0:00,en-vrac-bar-paris.jpg (https://dl.airtable.com/1tACG0koRMaoBirhulio_en-vrac-bar-paris.jpg),"2 rue de l’Olive, 75018 Paris",48.8901403,2.3591845,39,checked
Brasserie Barbès,8:00-2:30,8:00-2:30,8:00-2:30,8:00-2:30,8:00-2:30,8:00-2:30,8:00-2:30,brasseriebarbes.jpg (https://dl.airtable.com/nbCuLSQHa7VqAzPJwKXA_brasseriebarbes.jpg),"2 Boulevard Barbès, 75018 Paris",48.8839747,2.3475017,42,checked
L'imprévu,8:00-2:00,8:00-2:00,8:00-2:00,8:00-2:00,8:00-2:00,,9:00-2:00,limpr%c3%a9vu.jpg (https://dl.airtable.com/WY5dqdEcTEm8SsqfiAVu_limpr%25c3%25a9vu.jpg),"35 Rue Didot, 75014 Paris",48.8324566,2.3185243,43,checked
Au métro,7:00-1:00,7:00-1:00,7:00-1:00,7:00-1:00,7:00-1:00,7:00-1:00,7:00-1:00,au-metro-14-exterieur-83bfd.jpg (https://dl.airtable.com/x4I6P6wRE6gGt88lkk9A_au-metro-14-exterieur-83bfd.jpg),"66 Rue Raymond Losserand, 75014 Paris",48.8341401,2.3159432,44,checked
Le repaire de Bacchus,,11:00-22:00,11:00-22:00,11:00-22:00,11:00-22:00,11:00-22:00,10:00-20:00,bacchus.jpg (https://dl.airtable.com/vM0OBv8TP6CFpooGfeKO_bacchus.jpg),"18 Rue Daguerre, 75014 Paris",48.8340075,2.3274493,45,checked
Café Daguerre,7:00-2:00,7:00-2:00,7:00-2:00,7:00-2:00,7:00-2:00,7:00-2:00,7:00-2:00,caf%c3%a9+daguerre.jpg (https://dl.airtable.com/VVAaHSKWTcesjhedQ58K_caf%25c3%25a9%2Bdaguerre.jpg),"4 Avenue du Général Leclerc, 75014 Paris",48.8334511,2.3292454,46,checked
La Chope Daguerre,8:00-2:00,8:00-2:00,8:00-2:00,8:00-2:00,8:00-2:00,8:00-2:00,8:00-2:00,la+chope+daguerre.jpg (https://dl.airtable.com/lHdWgg3fROakIVcDAXJJ_la%2Bchope%2Bdaguerre.jpg),"17 Rue Daguerre, 75014 Paris",48.8337681,2.3278144,47,checked
Transversal,10:00-0:00,10:00-0:00,10:00-0:00,10:00-0:00,10:00-0:00,10:00-0:00,,transversal.jpg (https://dl.airtable.com/3kmGLrRtQ6KW9U8QtZII_transversal.jpg)," 22 Rue Daguerre, 75014 Paris",48.8341091,2.3272276,48,checked
Le Bar Hemingway,18:00-2:00,18:00-2:00,18:00-2:00,18:00-2:00,18:00-2:00,18:00-2:00,18:00-2:00,963123_ritz.jpg (https://dl.airtable.com/3TddHZ3wQqu6SvZC2ikC_963123_ritz.jpg),"15 Place Vendôme, 75001 Paris",48.8682425,2.3263482,49,checked
Le Bar 8,11:00-0:00,11:00-0:00,11:00-0:00,11:00-2:00,11:00-2:00,11:00-2:00,11:00-0:00,Bar-8.jpg (https://dl.airtable.com/alU2BPFQQ2eXSsDQodxi_Bar-8.jpg),251 rue Saint-Honoré - 75001 Paris,48.8669624,2.3247299,50,checked
Bar 228,12:00-1:00,12:00-1:00,12:00-1:00,12:00-1:00,12:00-1:00,12:00-1:00,12:00-1:00,bar-228.jpg (https://dl.airtable.com/oEFR2EBS8uJv7HluBO3g_bar-228.jpg),"228 Rue de Rivoli, 75001 Paris",48.8653312,2.3259392,51,checked
O'nesty,18:00-1:00,18:00-1:00,18:00-1:00,18:00-1:00,18:00-1:00,18:00-1:00,18:00-1:00,Paris-bar-O.jpg (https://dl.airtable.com/yGHW6m0zTwi58BQBvTvQ_Paris-bar-O.jpg),19 rue Hérold - 75001 Paris,48.8651179,2.3394214,52,checked
Duke’s Bar,12:00-14:30/16:00-18:00/18:00-22:30,12:00-14:30/16:00-18:00/18:00-22:30,12:00-14:30/16:00-18:00/18:00-22:30,12:00-14:30/16:00-18:00/18:00-22:30,12:00-14:30/16:00-18:00/18:00-22:30,12:00-14:30/16:00-18:00/18:00-22:30,12:00-14:30/16:00-18:00/18:00-22:30,Duke%e2%80%99s-Bar-H%c3%b4tel-Westminster---630x405---%c2%a9-H%c3%b4tel-Westminster.jpg (https://dl.airtable.com/qmWW0p6SkKwpLag3SYsT_Duke%25e2%2580%2599s-Bar-H%25c3%25b4tel-Westminster---630x405---%25c2%25a9-H%25c3%25b4tel-Westminster.jpg),"13 rue de la Paix, 75002 Paris",48.8651179,2.3394214,53,checked
La Mezcaleria,,18:00-2:00,18:00-2:00,18:00-2:00,18:00-2:00,18:00-2:00,,1K-Paris-Bar-031.jpg (https://dl.airtable.com/uQ4fBeKoTm6k83R5Q9kT_1K-Paris-Bar-031.jpg),"13 boulevard du Temple, 75003 Paris",48.8639355,2.3636853,54,checked
Jules & Jim,17:00-23:00,17:00-23:00,17:00-23:00,17:00-23:00,17:00-23:00,17:00-23:00,16:00-22:00,jules-et-jim-bar-paris-04.jpg (https://dl.airtable.com/emBysnXbQYGoe8fkSj9O_jules-et-jim-bar-paris-04.jpg),"11 Rue des Gravilliers, 75003 Paris",48.8635489,2.3551629,55,checked
Le Blind Bar,11:00-23:00,11:00-0:30,11:00-0:30,11:00-0:30,11:00-0:30,11:00-0:30,,blind+bar.jpg (https://dl.airtable.com/Tk1kJkTVS9GsjWXYfNSx_blind%2Bbar.jpg),"8, rue Jean Goujon, 75008, Paris",48.8666057,2.3090712,56,checked
Shangri-La,18:00-2:00,18:00-2:00,18:00-2:00,18:00-2:00,18:00-2:00,18:00-2:00,18:00-2:00,13847-le-bar-du-shangri-la-hotel-article_diapo-1.jpg (https://dl.airtable.com/5BAuUaRfRjaFpFxPU7eW_13847-le-bar-du-shangri-la-hotel-article_diapo-1.jpg),"10 Avenue d'Iéna, 75116 Paris",48.863717,2.2912872,58,checked
Saint James Paris,19:00-1:00,19:00-1:00,19:00-1:00,19:00-1:00,19:00-1:00,19:00-1:00,19:00-1:00,saint+james+paris.jpg (https://dl.airtable.com/k7gsAiuFQcWX6SnQ9dvx_saint%2Bjames%2Bparis.jpg),"43 Avenue Bugeaud, 75116 Paris",48.8704761,2.2775575,59,checked
Noham Café,7:00-23:00,7:00-23:00,7:00-23:00,7:00-23:00,7:00-23:00,7:00-23:00,7:00-23:00,Noham+Caf%c3%a9.jpg (https://dl.airtable.com/ZZ4777FATEWrlEstw5Hu_Noham%2BCaf%25c3%25a9.jpg),3 Avenue Mac Mahon 75017 Paris,48.8753923,2.2923282,60,checked
Le Bar Long,10:00-1:00,10:00-1:00,10:00-0:00,10:00-0:00,10:00-0:00,10:00-0:00,10:00-1:00,le+bar+long.jpg (https://dl.airtable.com/aX4KPFQuu1NhCexDfBwX_le%2Bbar%2Blong.jpg),"37 Avenue Hoche, 75008 Paris",48.8758298,2.2982182,61,checked
Island Bar - Mama Shelter,12:00-1:30,12:00-1:30,12:00-1:30,12:00-1:30,12:00-1:30,12:00-1:30,12:00-1:30,mama-shelter-paris-bar-2.jpg (https://dl.airtable.com/FNI8KGx1TnaGcY0JD75V_mama-shelter-paris-bar-2.jpg),"109 rue de Bagnolet, 75020 Paris",48.859836,2.4005463,62,checked
The Ice KUBE,18:30-1:00,18:30-1:00,18:30-1:00,18:30-1:00,18:30-1:00,18:30-1:00,18:30-1:00,ice-kubebar-paris.jpg (https://dl.airtable.com/1AydpZlkRVyA9sel5y4m_ice-kubebar-paris.jpg),"5 Passage Ruelle, 75018 Paris",48.8865242,2.3566213,63,checked
Le Dokhan’s Bar,18:00-0:00,18:00-0:00,18:00-0:00,18:00-0:00,18:00-0:00,18:00-0:00,18:00-0:00,le+dokhans.jpg (https://dl.airtable.com/5fwh3IJsS3CNvQBQAoAu_le%2Bdokhans.jpg),"117 Rue Lauriston, 75116 Paris",48.8663394,2.2846048,66,checked
Bar du Terrass' Hotel,15:30-1:00,15:30-1:00,15:30-1:00,15:30-1:00,15:30-1:00,15:30-1:00,15:30-1:00,Bar+Terass+Hotel.jpg (https://dl.airtable.com/AoLviKVRmS1hX9U0vNSP_Bar%2BTerass%2BHotel.jpg),12-14 Rue Joseph de Maistre 75018 Paris,48.8865661,2.3307761,67,checked
Le Perchoir,,18:00-1:30,18:00-1:30,18:00-1:30,18:00-1:30,18:00-1:30,,le-perchoir-1_4519918.jpg (https://dl.airtable.com/BW550vXgTkCiJFtUHm5W_le-perchoir-1_4519918.jpg),"14 Rue Crespin du Gast, 75011 Paris",48.8654558,2.3798288,68,checked
Le Perchoir Marais,,,20:15-1:30,20:15-1:30,20:15-1:30,20:15-1:30,,7556-LE-PERCHOIR-MARAIS.jpg (https://dl.airtable.com/qlbwHXm5ThSGPyM7Npkl_7556-LE-PERCHOIR-MARAIS.jpg),37 rue de la Verrerie 75004 Paris,48.8574997,2.351725,69,checked
The Fifth,17:00-2:00,17:00-2:00,17:00-2:00,17:00-2:00,17:00-4:00,17:00-4:45,17:00-2:45,fifth.jpg (https://dl.airtable.com/Emwog2O4RVGvL03LNRNe_fifth.jpg),"62 Rue Mouffetard, 75005 Paris",48.8430266,2.3473318,71,checked
Point Éphémère,12:30-2:00,12:30-2:00,12:30-2:00,12:30-2:00,12:30-2:00,12:30-2:00,12:30-22:00,pointephemere.jpg (https://dl.airtable.com/DbxlhJKSoqN4dp0gNk7b_pointephemere.jpg),"200 Quai de Valmy, 75010 Paris",48.8812785,2.3661533,73,checked
The Frog at Bercy Village,7:30-1:00,7:30-1:00,7:30-1:00,7:30-2:00,8:00-3:00,8:00-3:00,8:00-1:00,frogbercy.jpg (https://dl.airtable.com/E6efODdFSXC7a8i9jp39_frogbercy.jpg),"Bercy Village, 25 Cour Saint-Emilion, 75012 Paris",48.8330618,2.3838574,74,checked
Les Caves Alliées,,17:00-2:00,17:00-2:00,17:00-2:00,17:00-2:00,14:00-2:00,,cavesalliees.jpg (https://dl.airtable.com/oEyfDTLTqGySvYMpwcdw_cavesalliees.jpg),"44 Rue Grégoire de Tours, 75006 Paris",48.8518914,2.3352134,75,checked
Café Chéri,17:00-2:00,17:00-2:00,17:00-2:00,17:00-2:00,17:00-2:00,11:00-2:00,,cafecherie.jpg (https://dl.airtable.com/oxLaueVTAiOuSfY6le8w_cafecherie.jpg),"44 Boulevard de la Villette, 75019 Paris",48.8537428,2.2743967,76,checked
AbracadaBar,18:00-2:00,18:00-2:00,18:00-2:00,18:00-5:00,18:00-5:00,18:00-2:00,18:00-2:00,abracadabar.jpg (https://dl.airtable.com/X8pO20ZhTBQqxVL52xno_abracadabar.jpg),"123 Avenue Jean Jaurès, 75019 Paris",48.8861027,2.3799669,77,checked
Pavillon Puebla,,,18:00-2:00,18:00-2:00,18:00-2:00,18:00-2:00,12:00-20:00,pavillonpuebla.jpg (https://dl.airtable.com/X6Z6xkLTgiWMg0Qz0inQ_pavillonpuebla.jpg),"Parc des Buttes Chaumont, Avenue Darcel, 75019 Paris",48.8772435,2.3771103,78,checked
Mo'Town,10:00-02:00,10:00-02:00,10:00-02:00,10:00-02:00,10:00-02:00,10:00-02:00,10:00-02:00,motown.jpg (https://dl.airtable.com/NTj8Pt2fT5C3f2Hp0nn0_motown.jpg),"116 Boulevard de Ménilmontant, 75020 Paris",48.8657165,2.3824747,79,checked
Le Calbar,17:00-02:00,17:00-02:00,17:00-02:00,17:00-02:00,17:00-02:00,17:00-02:00,,calbar1.jpg (https://dl.airtable.com/BJKLj85DRsGw8SqRqIVI_calbar1.jpg),"82 Rue de Charenton, 75012 Paris",48.8486885,2.3731003,80,checked
Candelaria,12:00-23:00,12:00-23:00,12:00-23:00,12:00-23:00,12:00-0:00,12:00-0:00,12:00-23:00,candelaria.jpg (https://dl.airtable.com/i8nGZnxXQfWHAZ2CDCwz_candelaria.jpg),"56 rue de Saintonge, 75003 Paris",48.8629845,2.3618453,82,checked
Le Zinc,08:00-2:00,08:00-2:00,08:00-2:00,08:00-2:00,08:00-2:00,08:00-2:00,09:00-2:00,le-zinc-corner-1200x900.jpg (https://dl.airtable.com/HL79upJwQNaQlH5710k9_le-zinc-corner-1200x900.jpg),"61 Avenue de la Motte-Picquet, 75015 Paris",48.8495731,2.2967442,83,checked
Au Dernier Métro,07:00-02:00,07:00-02:00,06:00-02:00,06:00-02:00,06:00-02:00,06:00-02:00,06:00-02:00,photo-635633423166610601-2.jpg (https://dl.airtable.com/ipqzmVJTRRKJWXwg2s1B_photo-635633423166610601-2.jpg),"70 Boulevard de Grenelle, 75015 Paris",48.8503747,2.2907624,84,checked
Celtic Corner Pub,16:00-02:00,16:00-02:00,16:00-02:00,16:00-02:00,16:00-02:00,16:00-02:00,,13522023_10153758550176375_8672208421626093102_n.jpg (https://dl.airtable.com/lXs7vVxCRtW6ckrihgk8_13522023_10153758550176375_8672208421626093102_n.jpg),"88 Rue de la Croix Nivert, 75015 Paris",48.8438576,2.2936165,85,checked
Le Cristal,15:00-02:00,15:00-02:00,15:00-02:00,15:00-02:00,15:00-02:00,15:00-02:00,,cristal.jpg (https://dl.airtable.com/cYH2W6IOR0OtPtKbkSzL_cristal.jpg),"163 Avenue de Suffren, 75015 Paris",48.8457869,2.3077324,86,checked
Brewberry,,15:00-23:00,15:00-23:00,15:00-23:00,15:00-23:00,15:00-23:00,15:00-21:00,IMG_1830.JPG (https://dl.airtable.com/0O9cmzFHQty5bOSeBdu7_IMG_1830.JPG),"18 Rue du Pot de Fer, 75005 Paris",48.8429735,2.3463643,87,checked
Les Prolongations,09:00-02:00,09:00-02:00,06:00-02:00,06:00-02:00,06:00-02:00,06:00-02:00,06:00-02:00,5076b6dc601154.90885972.page_slider_8.jpg (https://dl.airtable.com/q9AtdsY4Tc2Mevnr3a28_5076b6dc601154.90885972.page_slider_8.jpg),"76 Boulevard de Grenelle, 75015 Paris",48.8501887,2.2914647,89,checked
Rosa Bonheur sur Seine,,,12:00-00:00,12:00-1:30,12:00-1:30,12:00-1:30,11:30-22:00,rosabonheursurseine.jpg (https://dl.airtable.com/ewthWAkvSxmW8FxSPwwq_rosabonheursurseine.jpg),"Port des Invalides, Quai d'Orsay, 75007 Paris",48.8633276,2.3133218,90,checked
The Club,16:00-2:00,16:00-2:00,16:00-2:00,16:00-2:00,16:00-2:00,16:00-2:00,,theclub.png (https://dl.airtable.com/Tx7cKoqQoKvEatmuUC52_theclub.png),"24 Rue Surcouf, 75007 Paris",48.8604105,2.3072063,91,checked
The Frog & Princess,17:30-1:00,17:30-1:00,17:30-1:00,17:30-2:00,17:30-2:00,12:00-2:00,12:00-1:00,thefrogprincess.png (https://dl.airtable.com/fLRw8FbzSyCbigh6nRoI_thefrogprincess.png),"9 Rue Princesse, 75006 Paris",48.8522805,2.3324949,92,checked
Little Red Door,18:00-2:00,18:00-2:00,18:00-2:00,18:00-2:00,18:00-2:00,18:00-3:00,18:00-2:00,thelittlereddoor.png (https://dl.airtable.com/9tkrwYKlQlKMQTXrKeDG_thelittlereddoor.png),"60 Rue Charlot, 75003 Paris",48.8637397,2.3614976,93,checked
Experimental Cocktail Club,19:00-2:00,19:00-2:00,19:00-2:00,19:00-2:00,19:00-4:00,19:00-4:00,20:00-2:00,experimentalcocktailclub.png (https://dl.airtable.com/VtjuB9oqRny2eF2I9Zx4_experimentalcocktailclub.png),"37 Rue Saint-Sauveur, 75002 Paris",48.8660675,2.3460723,94,checked
Compagnie des Vins Surnaturels,18:00-2:00,18:00-2:00,18:00-2:00,18:00-2:00,18:00-2:00,18:00-2:00,18:00-2:00,lacompagniedesvinssurnaturels.jpg (https://dl.airtable.com/RkXoRon0SlqC6koE6V9U_lacompagniedesvinssurnaturels.jpg),"7 Rue Lobineau, 75006 Paris",48.8516172,2.3340847,95,checked
Sputnik,17:00-2:00,17:00-2:00,17:00-2:00,17:00-2:00,14:00-2:00,14:00-2:00,16:00-00:00,sputnik.jpg (https://dl.airtable.com/OBEMX38RWq65UUQSFCSR_sputnik.jpg),"14 rue de la Butte aux Cailles, 75013 Paris",48.82796,2.3488228,96,checked
Le Merle Moqueur,17:00-2:00,17:00-2:00,17:00-2:00,17:00-2:00,17:00-2:00,17:00-2:00,17:00-2:00,lemerlemoqueur.jpg (https://dl.airtable.com/D44yPsj4QqivNgATUIyY_lemerlemoqueur.jpg),"11 Rue De La Butte Aux Cailles, 75013 Paris",48.8277254,2.3482142,97,checked
Inside Bar,,17:00-2:00,17:00-2:00,17:00-2:00,17:00-2:00,18:00-2:00,,inside-bar.jpg (https://dl.airtable.com/H4UqfyelRuSz2eqPher1_inside-bar.jpg),"14 Rue Claude Tillier, 75012 Paris",48.8480775,2.3858853,98,checked
La P'tite Mousse,,15:00-22:00,17:00-22:00,15:00-22:00,15:00-22:00,13:00-22:00,,26804516_2489313464627547_6987249788738927779_n.jpg?_nc_cat=0&oh=a4ceb5921d273ac5c8f63b6c6585d805&oe=5B5DB79D (https://dl.airtable.com/pqrG34krSUKCabP1PqFe_26804516_2489313464627547_6987249788738927779_n.jpg%3F_nc_cat%3D0%26oh%3Da4ceb5921d273ac5c8f63b6c6585d805%26oe%3D5B5DB79D),"29 Rue de Douai, 75009 Paris",48.8824706,2.3305275,99,checked
Le Trente Neuf,12:00-15:0/18:00-23:00,12:00-15:0/18:00-23:00,12:00-15:0/18:00-23:00,12:00-15:0/18:00-23:00,12:00-15:0/18:00-23:00,12:00-23:00,12:00-23:00,le-trente-neuf-vue-de-l-exterieur-b0ec8.jpg (https://dl.airtable.com/F2UeJSCFRvmu9Mmlueke_le-trente-neuf-vue-de-l-exterieur-b0ec8.jpg),"39 Rue Beaubourg, 75003 Paris",48.8621693,2.3537005,100,checked
Les Petits Céleste,,17:30-2:00,17:30-2:00,17:30-2:00,17:30-2:00,17:30-2:00,,petitscelestes-726x400.jpg (https://dl.airtable.com/3Dcki1fUQQ6mxbpBo81X_petitscelestes-726x400.jpg),"52 Rue Richard Lenoir, 75011 Paris

",48.8566742,2.3789857,102,checked
Plan B,16:30-0:00,16:30-0:00,16:30-2:00,16:30-2:00,16:30-2:00,16:30-2:00,,19092638_1909690515969781_4478932395216742432_o.jpg?_nc_cat=0&oh=6999a7e80d277c8ebf1357aee13180a1&oe=5B990545 (https://dl.airtable.com/asOuLBtHTDai4cM840XC_19092638_1909690515969781_4478932395216742432_o.jpg%3F_nc_cat%3D0%26oh%3D6999a7e80d277c8ebf1357aee13180a1%26oe%3D5B990545),28 rue de Lourmel,48.8489659,2.2885123,103,checked
Le Commerce Café,6:00-00:00,6:00-00:00,6:00-00:00,6:00-00:00,6:00-00:00,6:00-00:00,6:00-00:00,commerce-cafe-ouv.jpg (https://dl.airtable.com/C6HS3QpQRh2h7t6sqZkG_commerce-cafe-ouv.jpg),"80 rue du commerce, 75015 Paris",48.844952,2.2917639,104,checked
À la Tour Eiffel,6:30-01:00,6:30-01:00,6:30-01:00,6:30-01:00,6:30-01:00,6:30-01:00,6:30-00:00,a-la-tour-eiffel-1.jpg (https://dl.airtable.com/fjkfLuTTzuJxesECsFvX_a-la-tour-eiffel-1.jpg),"96 rue du commerce, 75015 Paris",48.843807,2.2907734,105,checked
3 Ducks Hostel Bar,14:00-1:30,14:00-1:30,14:00-1:30,14:00-1:30,14:00-1:30,14:00-1:30,14:00-1:30,28.jpg (https://dl.airtable.com/K3sfvEodSeaotAajKIcT_28.jpg),"6 place Etienne Pernet, 75015 Paris",48.8435559,2.290325,106,checked
Comptoir Moderne,16:00-00:00,16:00-00:00,16:00-00:00,16:00-00:00,16:00-02:00,11:00-02:00,11:00-00:00,comptoir-moderne.jpg (https://dl.airtable.com/63u7mYhmR6O6Gijd7uKW_comptoir-moderne.jpg),"26 rue de La Croix Nivert, 75015 Paris",48.8467582,2.2974596,107,checked
Le Loti,,18:00–02:00,18:00–02:00,18:00–02:00,18:00–02:00,18:00–02:00,,1500288129.jpg (https://dl.airtable.com/163GEXytRz6sL0aXw23L_1500288129.jpg),"53 Rue Jean-Pierre Timbaud, 75011 Paris",48.8668635,2.3720378,108,checked